KUIPER-00035            
1 63748U 25088AA  25210.91668981  .00011814  00000+0  88343-3 0  9992
2 63748  51.8863  20.6296 0004122  67.0731 176.9496 15.03141045  5808
KUIPER-00037            
1 63749U 25088AB  25210.91668981  .00008396  00000+0  60280-3 0  9994
2 63749  51.8885  19.9496 0004017   1.3474 131.5554 15.05049158  3763
KUIPER-00038            
1 63750U 25088AC  25210.90953585 -.00191001  00000+0 -53024-2 0  9997
2 63750  51.8714  13.6363 0005717  56.0157 304.1372 15.37062227 14386
KUIPER-00039            
1 64500U 25134A   25210.13605111  .00026222  00000+0  76661-3 0  9990
2 64500  51.8687 159.1025 0007142 240.2790 119.7486 15.35079546  6729
KUIPER-00040            
1 64501U 25134B   25210.91668981 -.00015412  00000+0 -69054-3 0  9990
2 64501  51.8762 156.1581 0011082 258.0447  53.1888 15.20041640  5704
KUIPER-00041            
1 64502U 25134C   25210.91668981 -.00924538  00000+0 -49698-1 0  9999
2 64502  51.8736 156.4501 0008729 246.5565 245.1340 15.17072273  6369
KUIPER-00042            
1 64503U 25134D   25210.91668981 -.00426659  00000+0 -16158-1 0  9996
2 64503  51.8681 155.5722 0008589 248.9246 350.9317 15.28204065  6378
KUIPER-00043            
1 64504U 25134E   25210.26837820  .00045221  00000+0  13169-2 0  9995
2 64504  51.8690 158.4903 0008103 237.5160 122.5043 15.34925881  6746
